{"type": "FeatureCollection", "features": [ {"type": "Feature", "properties": {"norad_id": 35038, "name": "COSMOS 2251 DEB", "group": "cosmos-2251-debris", "lat": -27.5832734025846, "lon": 43.24065306957752, "alt_km": 779.3177950796262, "timestamp": "2025-12-07T14:37:05.599454+00:00", "meta": {"OBJECT_NAME": "COSMOS 2251 DEB", "OBJECT_ID": "1993-036AHB", "EPOCH": "2025-12-06T15:52:14.325024", "MEAN_MOTION": 14.25085934, "ECCENTRICITY": 0.01136734, "INCLINATION": 74.1066, "RA_OF_ASC_NODE": 53.5023, "ARG_OF_PERICENTER": 39.0589, "MEAN_ANOMALY": 112.7959, "EPHEMERIS_TYPE": 0, "CLASSIFICATION_TYPE": "U", "NORAD_CAT_ID": 35038, "ELEMENT_SET_NO": 999, "REV_AT_EPOCH": 85482, "BSTAR": 0.0014861854, "MEAN_MOTION_DOT": 3.705e-05, "MEAN_MOTION_DDOT": 0}, "tle": {"line1": "1 35038U 93036AHB 25340.66127691  .00003705  00000+0  14862-2 0  9999", "line2": "2 35038  74.1066  53.5023 0113673  39.0589 112.7959 14.25085934854820"}}, "geometry": {"type": "Point", "coordinates": [43.24065306957752, -27.5832734025846]}}, {"type": "Feature", "properties": {"norad_id": 35043, "name": "COSMOS 2251 DEB", "group": "cosmos-2251-debris", "lat": -55.51687145772159, "lon": 30.916827831360262, "alt_km": 590.1442016595392, "timestamp": "2025-12-07T14:37:05.599464+00:00", "meta": {"OBJECT_NAME": "COSMOS 2251 DEB", "OBJECT_ID": "1993-036AHG", "EPOCH": "2025-12-04T12:04:43.932000", "MEAN_MOTION": 14.76234637, "ECCENTRICITY": 0.0098548, "INCLINATION": 73.9539, "RA_OF_ASC_NODE": 61.8026, "ARG_OF_PERICENTER": 272.4177, "MEAN_ANOMALY": 86.5717, "EPHEMERIS_TYPE": 0, "CLASSIFICATION_TYPE": "U", "NORAD_CAT_ID": 35043, "ELEMENT_SET_NO": 999, "REV_AT_EPOCH": 67297, "BSTAR": 0.0098371, "MEAN_MOTION_DOT": 0.00074481, "MEAN_MOTION_DDOT": 0}, "tle": {"line1": "1 35043U 93036AHG 25338.50328625  .00074481  00000+0  98371-2 0  9991", "line2": "2 35043  73.9539  61.8026 0098548 272.4177  86.5717 14.76234637672978"}}, "geometry": {"type": "Point", "coordinates": [30.916827831360262, -55.51687145772159]}}, {"type": "Feature", "properties": {"norad_id": 35045, "name": "COSMOS 2251 DEB", "group": "cosmos-2251-debris", "lat": 72.67665910428097, "lon": 172.2272954410372, "alt_km": 1001.7326161713399, "timestamp": "2025-12-07T14:37:05.599474+00:00", "meta": {"OBJECT_NAME": "COSMOS 2251 DEB", "OBJECT_ID": "1993-036AHJ", "EPOCH": "2025-12-06T12:26:28.649760", "MEAN_MOTION": 14.00365965, "ECCENTRICITY": 0.01833311, "INCLINATION": 73.7196, "RA_OF_ASC_NODE": 63.6906, "ARG_OF_PERICENTER": 306.5717, "MEAN_ANOMALY": 51.8661, "EPHEMERIS_TYPE": 0, "CLASSIFICATION_TYPE": "U", "NORAD_CAT_ID": 35045, "ELEMENT_SET_NO": 999, "REV_AT_EPOCH": 84556, "BSTAR": 0.0011142657, "MEAN_MOTION_DOT": 1.881e-05, "MEAN_MOTION_DDOT": 0}, "tle": {"line1": "1 35045U 93036AHJ 25340.51838715  .00001881  00000+0  11143-2 0  9999", "line2": "2 35045  73.7196  63.6906 0183331 306.5717  51.8661 14.00365965845564"}}, "geometry": {"type": "Point", "coordinates": [172.2272954410372, 72.67665910428097]}}, {"type": "Feature", "properties": {"norad_id": 35060, "name": "COSMOS 2251 DEB", "group": "cosmos-2251-debris", "lat": -36.98471690511403, "lon": -118.61259859215785, "alt_km": 747.1437721026205, "timestamp": "2025-12-07T14:37:05.599484+00:00", "meta": {"OBJECT_NAME": "COSMOS 2251 DEB", "OBJECT_ID": "1993-036AHP", "EPOCH": "2025-11-28T02:37:07.839264", "MEAN_MOTION": 14.41547968, "ECCENTRICITY": 0.00179641, "INCLINATION": 74.0363, "RA_OF_ASC_NODE": 271.4275, "ARG_OF_PERICENTER": 359.5881, "MEAN_ANOMALY": 0.5257, "EPHEMERIS_TYPE": 0, "CLASSIFICATION_TYPE": "U", "NORAD_CAT_ID": 35060, "ELEMENT_SET_NO": 999, "REV_AT_EPOCH": 87031, "BSTAR": 0.0004076845, "MEAN_MOTION_DOT": 1.301e-05, "MEAN_MOTION_DDOT": 0}, "tle": {"line1": "1 35060U 93036AHP 25332.10911851  .00001301  00000+0  40768-3 0  9998", "line2": "2 35060  74.0363 271.4275 0017964 359.5881   0.5257 14.41547968870310"}}, "geometry": {"type": "Point", "coordinates": [-118.61259859215785, -36.98471690511403]}}, {"type": "Feature", "properties": {"norad_id": 35061, "name": "COSMOS 2251 DEB", "group": "cosmos-2251-debris", "lat": 72.35797435398786, "lon": 19.72696703958955, "alt_km": 634.3519740730017, "timestamp": "2025-12-07T14:37:05.599494+00:00", "meta": {"OBJECT_NAME": "COSMOS 2251 DEB", "OBJECT_ID": "1993-036AHQ", "EPOCH": "2025-12-06T21:53:18.224736", "MEAN_MOTION": 14.67747851, "ECCENTRICITY": 0.00389104, "INCLINATION": 74.0457, "RA_OF_ASC_NODE": 316.9765, "ARG_OF_PERICENTER": 69.579, "MEAN_ANOMALY": 290.9551, "EPHEMERIS_TYPE": 0, "CLASSIFICATION_TYPE": "U", "NORAD_CAT_ID": 35061, "ELEMENT_SET_NO": 999, "REV_AT_EPOCH": 88489, "BSTAR": 0.0012424311, "MEAN_MOTION_DOT": 7.138e-05, "MEAN_MOTION_DDOT": 0}, "tle": {"line1": "1 35061U 93036AHQ 25340.91201649  .00007138  00000+0  12424-2 0  9995", "line2": "2 35061  74.0457 316.9765 0038910  69.5790 290.9551 14.67747851884896"}}, "geometry": {"type": "Point", "coordinates": [19.72696703958955, 72.35797435398786]}}, {"type": "Feature", "properties": {"norad_id": 35062, "name": "COSMOS 2251 DEB", "group": "cosmos-2251-debris", "lat": -63.017836352117584, "lon": -43.455941275729636, "alt_km": 896.7768986492601, "timestamp": "2025-12-07T14:37:05.599504+00:00", "meta": {"OBJECT_NAME": "COSMOS 2251 DEB", "OBJECT_ID": "1993-036AHR", "EPOCH": "2025-12-06T02:01:54.253344", "MEAN_MOTION": 14.22846958, "ECCENTRICITY": 0.01280925, "INCLINATION": 74.0788, "RA_OF_ASC_NODE": 105.1759, "ARG_OF_PERICENTER": 106.8523, "MEAN_ANOMALY": 254.6716, "EPHEMERIS_TYPE": 0, "CLASSIFICATION_TYPE": "U", "NORAD_CAT_ID": 35062, "ELEMENT_SET_NO": 999, "REV_AT_EPOCH": 85404, "BSTAR": 0.0030644191, "MEAN_MOTION_DOT": 7.469e-05, "MEAN_MOTION_DDOT": 0}, "tle": {"line1": "1 35062U 93036AHR 25340.08465571  .00007469  00000+0  30644-2 0  9991", "line2": "2 35062  74.0788 105.1759 0128092 106.8523 254.6716 14.22846958854048"}}, "geometry": {"type": "Point", "coordinates": [-43.455941275729636, -63.017836352117584]}}, {"type": "Feature", "properties": {"norad_id": 35065, "name": "COSMOS 2251 DEB", "group": "cosmos-2251-debris", "lat": -50.12998968679943, "lon": 43.9789208359818, "alt_km": 747.8690170880454, "timestamp": "2025-12-07T14:37:05.599514+00:00", "meta": {"OBJECT_NAME": "COSMOS 2251 DEB", "OBJECT_ID": "1993-036AHU", "EPOCH": "2025-12-06T22:35:45.269952", "MEAN_MOTION": 14.4570153, "ECCENTRICITY": 0.00196371, "INCLINATION": 74.0198, "RA_OF_ASC_NODE": 205.1597, "ARG_OF_PERICENTER": 331.0404, "MEAN_ANOMALY": 28.9662, "EPHEMERIS_TYPE": 0, "CLASSIFICATION_TYPE": "U", "NORAD_CAT_ID": 35065, "ELEMENT_SET_NO": 999, "REV_AT_EPOCH": 68267, "BSTAR": 0.00070588352, "MEAN_MOTION_DOT": 2.479e-05, "MEAN_MOTION_DDOT": 0}, "tle": {"line1": "1 35065U 93036AHU 25340.94149618  .00002479  00000+0  70588-3 0  9998", "line2": "2 35065  74.0198 205.1597 0019637 331.0404  28.9662 14.45701530682672"}}, "geometry": {"type": "Point", "coordinates": [43.9789208359818, -50.12998968679943]}}, {"type": "Feature", "properties": {"norad_id": 35071, "name": "COSMOS 2251 DEB", "group": "cosmos-2251-debris", "lat": 65.31091642204905, "lon": -34.84202448695812, "alt_km": 507.5990659457011, "timestamp": "2025-12-07T14:37:05.599524+00:00", "meta": {"OBJECT_NAME": "COSMOS 2251 DEB", "OBJECT_ID": "1993-036AJA", "EPOCH": "2025-12-06T06:11:48.969024", "MEAN_MOTION": 15.03269957, "ECCENTRICITY": 0.00683754, "INCLINATION": 73.9314, "RA_OF_ASC_NODE": 186.7627, "ARG_OF_PERICENTER": 85.1943, "MEAN_ANOMALY": 275.7048, "EPHEMERIS_TYPE": 0, "CLASSIFICATION_TYPE": "U", "NORAD_CAT_ID": 35071, "ELEMENT_SET_NO": 999, "REV_AT_EPOCH": 67439, "BSTAR": 0.0011992827, "MEAN_MOTION_DOT": 0.00017109, "MEAN_MOTION_DDOT": 0}, "tle": {"line1": "1 35071U 93036AJA 25340.25820566  .00017109  00000+0  11993-2 0  9997", "line2": "2 35071  73.9314 186.7627 0068375  85.1943 275.7048 15.03269957674390"}}, "geometry": {"type": "Point", "coordinates": [-34.84202448695812, 65.31091642204905]}}, {"type": "Feature", "properties": {"norad_id": 35073, "name": "COSMOS 2251 DEB", "group": "cosmos-2251-debris", "lat": -73.90698227281688, "lon": -102.96967161766246, "alt_km": 580.4680692020193, "timestamp": "2025-12-07T14:37:05.599534+00:00", "meta": {"OBJECT_NAME": "COSMOS 2251 DEB", "OBJECT_ID": "1993-036AJC", "EPOCH": "2025-12-06T06:59:58.933248", "MEAN_MOTION": 14.99991639, "ECCENTRICITY": 0.00102924, "INCLINATION": 74.0009, "RA_OF_ASC_NODE": 343.7168, "ARG_OF_PERICENTER": 84.8418, "MEAN_ANOMALY": 275.3943, "EPHEMERIS_TYPE": 0, "CLASSIFICATION_TYPE": "U", "NORAD_CAT_ID": 35073, "ELEMENT_SET_NO": 999, "REV_AT_EPOCH": 67382, "BSTAR": 0.0044204403, "MEAN_MOTION_DOT": 0.00055435, "MEAN_MOTION_DDOT": 0}, "tle": {"line1": "1 35073U 93036AJC 25340.29165432  .00055435  00000+0  44204-2 0  9992", "line2": "2 35073  74.0009 343.7168 0010292  84.8418 275.3943 14.99991639673828"}}, "geometry": {"type": "Point", "coordinates": [-102.96967161766246, -73.90698227281688]}}, {"type": "Feature", "properties": {"norad_id": 35284, "name": "COSMOS 2251 DEB", "group": "cosmos-2251-debris", "lat": 59.87530492669782, "lon": -56.59851302821868, "alt_km": 754.424179044955, "timestamp": "2025-12-07T14:37:05.599544+00:00", "meta": {"OBJECT_NAME": "COSMOS 2251 DEB", "OBJECT_ID": "1993-036AJN", "EPOCH": "2025-12-06T14:07:12.355680", "MEAN_MOTION": 14.38306996, "ECCENTRICITY": 0.00165553, "INCLINATION": 74.0489, "RA_OF_ASC_NODE": 275.7489, "ARG_OF_PERICENTER": 353.4486, "MEAN_ANOMALY": 187.2786, "EPHEMERIS_TYPE": 0, "CLASSIFICATION_TYPE": "U", "NORAD_CAT_ID": 35284, "ELEMENT_SET_NO": 999, "REV_AT_EPOCH": 65437, "BSTAR": 0.00034127282, "MEAN_MOTION_DOT": 1.014e-05, "MEAN_MOTION_DDOT": 0}, "tle": {"line1": "1 35284U 93036AJN 25340.58833745  .00001014  00000+0  34127-3 0  9995", "line2": "2 35284  74.0489 275.7489 0016555 353.4486 187.2786 14.38306996654376"}}, "geometry": {"type": "Point", "coordinates": [-56.59851302821868, 59.87530492669782]}}]}